[
    {
        "CCSDS_OMM_VERS": "3.0",
        "COMMENT": "GENERATED VIA SPACE-TRACK.ORG API",
        "CREATION_DATE": "2025-05-02T14:46:38",
        "ORIGINATOR": "18 SPCS",
        "OBJECT_NAME": "GALILEO 12 (269)",
        "OBJECT_ID": "2015-079A",
        "CENTER_NAME": "EARTH",
        "REF_FRAME": "TEME",
        "TIME_SYSTEM": "UTC",
        "MEAN_ELEMENT_THEORY": "SGP4",
        "EPOCH": "2025-05-02T10:19:01.267392",
        "MEAN_MOTION": "1.70474212",
        "ECCENTRICITY": "0.00056110",
        "INCLINATION": "55.5854",
        "RA_OF_ASC_NODE": "112.5395",
        "ARG_OF_PERICENTER": "318.8025",
        "MEAN_ANOMALY": "41.1376",
        "EPHEMERIS_TYPE": "0",
        "CLASSIFICATION_TYPE": "U",
        "NORAD_CAT_ID": "41174",
        "ELEMENT_SET_NO": "999",
        "REV_AT_EPOCH": "5835",
        "BSTAR": "0.00000000000000",
        "MEAN_MOTION_DOT": "0.00000039",
        "MEAN_MOTION_DDOT": "0.0000000000000",
        "SEMIMAJOR_AXIS": "29600.296",
        "PERIOD": "844.703",
        "APOAPSIS": "23238.769",
        "PERIAPSIS": "23205.552",
        "OBJECT_TYPE": "PAYLOAD",
        "RCS_SIZE": "LARGE",
        "COUNTRY_CODE": "ESA",
        "LAUNCH_DATE": "2015-12-17",
        "SITE": "FRGUI",
        "DECAY_DATE": null,
        "FILE": "4716789",
        "GP_ID": "286658429",
        "TLE_LINE0": "0 GALILEO 12 (269)",
        "TLE_LINE1": "1 41174U 15079A   25122.42987578  .00000039  00000-0  00000+0 0  9992",
        "TLE_LINE2": "2 41174  55.5854 112.5395 0005611 318.8025  41.1376  1.70474212 58358"
    }
]